NORAD_CAT_ID,OBJECT_NAME,OBJECT_TYPE,EPOCH,MEAN_MOTION,ECCENTRICITY,INCLINATION,RA_OF_ASC_NODE,ARG_OF_PERICENTER,MEAN_ANOMALY,BSTAR,MEAN_MOTION_DOT,MEAN_MOTION_DDOT,TLE_LINE0,TLE_LINE1,TLE_LINE2,SEMIMAJOR_AXIS,PERIOD,APOGEE,PERIGEE,DECAYED
52334.0,STARLINK-3880,PAYLOAD,2023-02-15 15:27:14,15.08835934,8.31e-05,53.2138,188.229,99.2403,260.8683,0.00011291,1.51e-05,0.0,0 STARLINK-3880,1 52334U 22045D   23046.64391822  .00001510  00000-0  11291-3 0  9994,2 52334  53.2138 188.2290 0000831  99.2403 260.8683 15.08835934 46841,6917.893,95.438,540.333,539.183,0.0
52334.0,STARLINK-3880,PAYLOAD,2023-02-16 12:07:14,15.08848761,0.0001004,53.2135,184.3616,92.4053,267.7054,0.00022887,3.357e-05,0.0,0 STARLINK-3880,1 52334U 22045D   23047.50502418  .00003357  00000-0  22887-3 0  9999,2 52334  53.2135 184.3616 0001004  92.4053 267.7054 15.08848761 46970,6917.854,95.437,540.413,539.024,0.0
52334.0,STARLINK-3880,PAYLOAD,2023-02-16 15:18:00,15.08845314,9.53e-05,53.2142,183.768,73.5038,286.6059,0.00019959,2.891e-05,0.0,0 STARLINK-3880,1 52334U 22045D   23047.63750775  .00002891  00000-0  19959-3 0  9992,2 52334  53.2142 183.7680 0000953  73.5038 286.6059 15.08845314 46995,6917.864,95.437,540.388,539.07,0.0
52334.0,STARLINK-3880,PAYLOAD,2023-02-17 11:58:02,15.0883296,3.88e-05,53.2151,179.9019,64.8607,295.2426,5.5885e-06,-1.99e-06,0.0,0 STARLINK-3880,1 52334U 22045D   23048.49863581 -.00000199  00000-0  55885-5 0  9997,2 52334  53.2151 179.9019 0000388  64.8607 295.2426 15.08832960 47128,6917.902,95.438,540.035,539.498,0.0
52334.0,STARLINK-3880,PAYLOAD,2023-02-17 15:08:48,15.08829781,3.78e-05,53.2157,179.3065,88.6687,271.4349,-2.6339e-05,-7.06e-06,0.0,0 STARLINK-3880,1 52334U 22045D   23048.63111661 -.00000706  00000-0 -26339-4 0  9994,2 52334  53.2157 179.3065 0000378  88.6687 271.4349 15.08829781 47149,6917.912,95.438,540.038,539.515,0.0
52334.0,STARLINK-3880,PAYLOAD,2023-02-18 14:59:35,15.0883738,7.93e-05,53.2147,174.8468,83.3666,276.7416,4.6749e-05,4.56e-06,0.0,0 STARLINK-3880,1 52334U 22045D   23049.62471521  .00000456  00000-0  46749-4 0  9995,2 52334  53.2147 174.8468 0000793  83.3666 276.7416 15.08837380 47298,6917.888,95.438,540.302,539.205,0.0
52334.0,STARLINK-3880,PAYLOAD,2023-02-19 14:50:22,15.08836804,9.59e-05,53.2141,170.386,98.309,261.8011,0.00017827,2.55e-05,0.0,0 STARLINK-3880,1 52334U 22045D   23050.61831680  .00002550  00000-0  17827-3 0  9993,2 52334  53.2141 170.3860 0000959  98.3090 261.8011 15.08836804 47443,6917.89,95.438,540.419,539.092,0.0
52334.0,STARLINK-3880,PAYLOAD,2023-02-19 19:36:31,15.08843422,0.0001016,53.2148,169.4922,95.3205,264.7903,0.00020845,3.032e-05,0.0,0 STARLINK-3880,1 52334U 22045D   23050.81703130  .00003032  00000-0  20845-3 0  9993,2 52334  53.2148 169.4922 0001016  95.3205 264.7903 15.08843422 47477,6917.87,95.437,540.438,539.032,0.0
52334.0,STARLINK-3880,PAYLOAD,2023-02-20 08:19:37,15.08831778,0.0001123,53.2141,167.115,94.7547,265.3574,7.024e-05,8.3e-06,0.0,0 STARLINK-3880,1 52334U 22045D   23051.34696538  .00000830  00000-0  70240-4 0  9993,2 52334  53.2141 167.1150 0001123  94.7547 265.3574 15.08831778 47550,6917.906,95.438,540.547,538.994,0.0
52334.0,STARLINK-3880,PAYLOAD,2023-02-20 14:41:09,15.08840452,0.0001298,53.2136,165.9269,95.0928,265.0212,0.00013201,1.814e-05,0.0,0 STARLINK-3880,1 52334U 22045D   23051.61191823  .00001814  00000-0  13201-3 0  9996,2 52334  53.2136 165.9269 0001298  95.0928 265.0212 15.08840452 47590,6917.879,95.438,540.642,538.846,0.0
52334.0,STARLINK-3880,PAYLOAD,2023-02-21 14:31:56,15.08852465,0.0001182,53.2151,161.4632,103.905,256.2073,3.7157e-05,3.04e-06,0.0,0 STARLINK-3880,1 52334U 22045D   23052.60551478  .00000304  00000-0  37157-4 0  9992,2 52334  53.2151 161.4632 0001182 103.9050 256.2073 15.08852465 47740,6917.842,95.437,540.525,538.89,0.0
52334.0,STARLINK-3880,PAYLOAD,2023-02-21 17:42:43,15.08800883,0.0001477,53.2149,160.8715,90.2646,269.8515,0.00097513,0.00015249,0.0,0 STARLINK-3880,1 52334U 22045D   23052.73800519  .00015249  00000-0  97513-3 0  9994,2 52334  53.2149 160.8715 0001477  90.2646 269.8515 15.08800883 47768,6918.0,95.44,540.887,538.843,0.0
52334.0,STARLINK-3880,PAYLOAD,2023-02-22 00:04:15,15.08847822,0.0001125,53.2152,159.6795,85.7907,274.3214,-2.2437e-05,-6.45e-06,0.0,0 STARLINK-3880,1 52334U 22045D   23053.00295673 -.00000645  00000-0 -22437-4 0  9994,2 52334  53.2152 159.6795 0001125  85.7907 274.3214 15.08847822 47801,6917.856,95.437,540.5,538.943,0.0
52334.0,STARLINK-3880,PAYLOAD,2023-02-22 11:11:58,15.08836845,0.0001391,53.2137,157.5996,85.4231,274.692,5.6212e-05,6.07e-06,0.0,0 STARLINK-3880,1 52334U 22045D   23053.46664369  .00000607  00000-0  56212-4 0  9990,2 52334  53.2137 157.5996 0001391  85.4231 274.6920 15.08836845 47873,6917.89,95.438,540.717,538.793,0.0
52334.0,STARLINK-3880,PAYLOAD,2023-02-22 12:47:20,15.08840703,0.0001175,53.2139,157.302,85.5485,274.5641,2.6478e-06,-2.46e-06,0.0,0 STARLINK-3880,1 52334U 22045D   23053.53288137 -.00000246  00000-0  26478-5 0  9995,2 52334  53.2139 157.3020 0001175  85.5485 274.5641 15.08840703 47881,6917.878,95.438,540.556,538.93,0.0
52334.0,STARLINK-3880,PAYLOAD,2023-02-22 15:58:06,15.08845227,0.000128,53.2146,156.7077,79.4551,280.6585,6.8978e-05,8.1e-06,0.0,0 STARLINK-3880,1 52334U 22045D   23053.66535739  .00000810  00000-0  68978-4 0  9998,2 52334  53.2146 156.7077 0001280  79.4551 280.6585 15.08845227 47901,6917.864,95.437,540.615,538.844,0.0
52334.0,STARLINK-3880,PAYLOAD,2023-02-22 23:55:03,15.08831179,0.0001392,53.2152,155.2224,91.7118,268.4034,1.1575e-05,-1.04e-06,0.0,0 STARLINK-3880,1 52334U 22045D   23053.99656833 -.00000104  00000-0  11575-4 0  9991,2 52334  53.2152 155.2224 0001392  91.7118 268.4034 15.08831179 47955,6917.907,95.438,540.735,538.809,0.0
52334.0,STARLINK-3880,PAYLOAD,2023-02-23 12:38:08,15.08836449,0.0001422,53.2155,152.8411,95.4749,264.6406,-5.6406e-05,-1.185e-05,0.0,0 STARLINK-3880,1 52334U 22045D   23054.52648873 -.00001185  00000-0 -56406-4 0  9999,2 52334  53.2155 152.8411 0001422  95.4749 264.6406 15.08836449 48030,6917.891,95.438,540.74,538.773,0.0
52334.0,STARLINK-3880,PAYLOAD,2023-02-23 14:13:31,15.08838531,0.0001422,53.2156,152.5437,95.568,264.5475,-3.5852e-05,-8.58e-06,0.0,0 STARLINK-3880,1 52334U 22045D   23054.59272694 -.00000858  00000-0 -35852-4 0  9998,2 52334  53.2156 152.5437 0001422  95.5680 264.5475 15.08838531 48041,6917.885,95.438,540.734,538.766,0.0
52334.0,STARLINK-3880,PAYLOAD,2023-02-24 12:28:55,15.08838029,0.0001203,53.2155,148.3808,86.0072,274.1057,8.5258e-05,1.069e-05,0.0,0 STARLINK-3880,1 52334U 22045D   23055.52008646  .00001069  00000-0  85258-4 0  9994,2 52334  53.2155 148.3808 0001203  86.0072 274.1057 15.08838029 48182,6917.886,95.438,540.584,538.919,0.0
52334.0,STARLINK-3880,PAYLOAD,2023-02-24 15:39:41,15.0884486,0.0001373,53.2156,147.7816,97.4,262.7148,7.2861e-05,8.72e-06,0.0,0 STARLINK-3880,1 52334U 22045D   23055.65256226  .00000872  00000-0  72861-4 0  9994,2 52334  53.2156 147.7816 0001373  97.4000 262.7148 15.08844860 48207,6917.866,95.437,540.68,538.781,0.0
52334.0,STARLINK-3880,PAYLOAD,2023-02-24 17:15:04,15.08845122,0.0001376,53.2155,147.4843,97.8882,262.2267,7.801e-05,9.54e-06,0.0,0 STARLINK-3880,1 52334U 22045D   23055.71880210  .00000954  00000-0  78010-4 0  9990,2 52334  53.2155 147.4843 0001376  97.8882 262.2267 15.08845122 48218,6917.865,95.437,540.682,538.778,0.0
52334.0,STARLINK-3880,PAYLOAD,2023-02-25 12:19:42,15.08837942,0.0001358,53.2145,143.9197,83.7136,276.401,8.6893e-05,1.095e-05,0.0,0 STARLINK-3880,1 52334U 22045D   23056.51369026  .00001095  00000-0  86893-4 0  9991,2 52334  53.2145 143.9197 0001358  83.7136 276.4010 15.08837942 48333,6917.887,95.438,540.691,538.812,0.0
52334.0,STARLINK-3880,PAYLOAD,2023-02-25 15:30:28,15.08844311,0.0001358,53.2157,143.3257,84.6627,275.452,0.00013248,1.821e-05,0.0,0 STARLINK-3880,1 52334U 22045D   23056.64616508  .00001821  00000-0  13248-3 0  9995,2 52334  53.2157 143.3257 0001358  84.6627 275.4520 15.08844311 48357,6917.867,95.437,540.672,538.793,0.0
52334.0,STARLINK-3880,PAYLOAD,2023-02-26 10:35:05,15.0885737,0.0001286,53.2135,139.7521,108.3408,251.7724,0.00019712,2.852e-05,0.0,0 STARLINK-3880,1 52334U 22045D   23057.44103366  .00002852  00000-0  19712-3 0  9994,2 52334  53.2135 139.7521 0001286 108.3408 251.7724 15.08857370 48472,6917.827,95.436,540.582,538.803,0.0
52334.0,STARLINK-3880,PAYLOAD,2023-02-26 15:21:14,15.08858474,0.0001274,53.2137,138.8603,108.286,251.827,0.00019101,2.755e-05,0.0,0 STARLINK-3880,1 52334U 22045D   23057.63975106  .00002755  00000-0  19101-3 0  9998,2 52334  53.2137 138.8603 0001274 108.2860 251.8270 15.08858474 48500,6917.824,95.436,540.57,538.808,0.0
52334.0,STARLINK-3880,PAYLOAD,2023-02-27 07:15:08,15.0882774,0.0001261,53.216,135.8903,116.5528,243.5594,-1.8037e-05,-5.75e-06,0.0,0 STARLINK-3880,1 52334U 22045D   23058.30217806 -.00000575  00000-0 -18037-4 0  9997,2 52334  53.2160 135.8903 0001261 116.5528 243.5594 15.08827740 48605,6917.918,95.438,540.655,538.911,0.0
52334.0,STARLINK-3880,PAYLOAD,2023-02-27 15:12:01,15.0886162,0.0001381,53.2168,134.406,117.6458,242.4675,0.00020379,2.959e-05,0.0,0 STARLINK-3880,1 52334U 22045D   23058.63335298  .00002959  00000-0  20379-3 0  9996,2 52334  53.2168 134.4060 0001381 117.6458 242.4675 15.08861620 48657,6917.814,95.436,540.635,538.724,0.0
52334.0,STARLINK-3880,PAYLOAD,2023-02-27 21:33:35,15.08839605,0.000132,53.2155,133.214,108.6466,251.4669,-3.0016e-05,-7.66e-06,0.0,0 STARLINK-3880,1 52334U 22045D   23058.89832614 -.00000766  00000-0 -30016-4 0  9994,2 52334  53.2155 133.2140 0001320 108.6466 251.4669 15.08839605 48696,6917.882,95.438,540.66,538.833,0.0
52334.0,STARLINK-3880,PAYLOAD,2023-02-28 13:27:26,15.08852185,9.8e-05,53.2139,130.2392,108.19,251.9199,9.0413e-05,1.152e-05,0.0,0 STARLINK-3880,1 52334U 22045D   23059.56071863  .00001152  00000-0  90413-4 0  9995,2 52334  53.2139 130.2392 0000980 108.1900 251.9199 15.08852185 48795,6917.843,95.437,540.386,539.03,0.0
